JY1SAT (JO-97)          
1 43803U 18099AX  20046.47172964  .00000463  00000-0  47052-4 0  9992
2 43803  97.7168 120.1058 0014023 238.4680 121.5171 14.95417519 65551
SUOMI-100               
1 43804U 18099AY  20045.86957355  .00000397  00000-0  41102-4 0  9996
2 43804  97.7166 119.5060 0014077 240.8537 119.1275 14.95409812 65478
AL-FARABI 2             
1 43805U 18099AZ  20046.45505568 -.00000014  00000-0  39792-5 0  9998
2 43805  97.7171 120.1353 0014184 239.1392 120.8434 14.95508948 65563
CENTAURI-1              
1 43809U 18099BD  20046.50114898  .00000019  00000-0  69754-5 0  9995
2 43809  97.7184 120.3060 0013912 240.2200 119.7638 14.95510729 65267
PW-SAT2                 
1 43814U 18099BJ  20045.78356541  .00015881  00000-0  10653-2 0  9997
2 43814  97.7824 124.6000 0010914 210.5417 149.4940 15.06881151 65061
CHOMPTT                 
1 43855U 18104G   20046.55941404  .00000942  00000-0  38411-4 0  9999
2 43855  85.0367 256.4874 0018635 138.1412 222.1260 15.22754001 64827
DAVINCI                 
1 43857U 18104J   20045.66232587  .00000042  00000-0  00000+0 0  9996
2 43857  85.0271 257.2986 0015705 166.2051 193.9823 15.22201245 64661
UWE-4                   
1 43880U 18111E   20046.30940358  .00000166  00000-0  19806-4 0  9990
2 43880  97.7111 315.8817 0010984 302.2416  57.7741 14.96390733 60073
ZACUBE-2                
1 43907U 18111AH  20046.44956056  .00000399  00000-0  19031-4 0  9995
2 43907  97.2767 309.8432 0020522 214.5201 145.4706 15.24449834 63277
MICRODRAGON             
1 43935U 19003D   20046.42913308  .00000448  00000-0  22329-4 0  9997
2 43935  97.2508 101.0710 0017063 311.9351 174.2774 15.22337007 59834
AOBA VELOX-IV           
1 43940U 19003J   20046.42035720  .00001300  00000-0  55290-4 0  9997
2 43940  97.2467 101.8384 0022518 300.7009 186.2650 15.24560610 59900
M6P                     
1 44109U 19018AF  20046.44962197  .00001174  00000-0  40699-4 0  9996
2 44109  97.4795 114.9719 0057798 288.0187 195.7388 15.30438472 48766
SPOOQY-1                
1 44332U 98067QH  20045.73822162  .00006249  00000-0  96874-4 0  9997
2 44332  51.6386 233.1918 0004991 260.2064  99.8364 15.55448160 37689
FORMOSAT 7-4            
1 44350U 19036M   20046.47247211  .00000765  00000-0  24409-4 0  9996
2 44350  23.9996 128.7428 0015058 326.1214  33.8328 15.10338275 34533
TBEX-B                  
1 44359U 19036W   20045.44677959  .00024183 -53048-5  27763-3 0  9998
2 44359  28.5202  96.9232 0323352  96.3729 267.3784 15.15810349 35171
PAINANI 1               
1 44365U 19037A   20046.51170027  .00001430  00000-0  46824-4 0  9993
2 44365  45.0170  88.2803 0006129 223.0347 137.0064 15.37598708 35595
ACRUX 1                 
1 44369U 19037E   20046.49236010  .00002679  00000-0  72438-4 0  9995
2 44369  45.0150  83.1290 0013325 188.2885 171.7785 15.40694035 35607
METEOR-M2 2             
1 44387U 19038A   20046.51659655 -.00000021  00000-0  98591-5 0  9992
2 44387  98.6034   9.1069 0000759 173.4486 186.6703 14.23676045 32045
VDNH-80                 
1 44392U 19038G   20046.45673211  .00000579  00000-0  36849-4 0  9999
2 44392  97.5228   9.6177 0021291 190.4987 169.5802 15.12547529 33806
D-STAR ONE (LIGHTSAT)   
1 44393U 19038H   20045.88127036  .00000543  00000-0  34905-4 0  9997
2 44393  97.5227   9.0048 0021648 192.6887 167.3802 15.12391747 33913
AMGU-1 (AMURSAT)        
1 44394U 19038J   20046.15395777  .00000610  00000-0  38791-4 0  9990
2 44394  97.5226   9.2544 0021663 192.0984 167.9730 15.12354674 33953
DOT-1                   
1 44399U 19038P   20046.15459604  .00000371  00000-0  25384-4 0  9993
2 44399  97.5236   9.1208 0024419 193.4708 166.5873 15.11844292 33947
SOKRAT                  
1 44404U 19038U   20046.44653903  .00000689  00000-0  43513-4 0  9996
2 44404  97.5226   9.4761 0021963 191.8802 168.1913 15.12171083 33998
LUCKY-7                 
1 44406U 19038W   20046.12351415  .00000427  00000-0  28492-4 0  9995
2 44406  97.5234   9.1520 0024461 186.7751 173.3153 15.12060933 33930
D-STAR ONE (EXOCONNECT) 
1 44410U 19038AA  20045.89473832  .00000918  00000-0  56391-4 0  9995
2 44410  97.5215   8.9735 0021861 193.1106 166.9559 15.12400459 33913
NARSSCUBE-2             
1 44415U 19022E   20045.89209617  .00000755  00000-0  38209-4 0  9998
2 44415  51.6427 267.4855 0011232 231.4981 128.4993 15.29763543 29337
SWIATOWID               
1 44426U 98067QL  20046.50185464  .00011827  00000-0  16876-3 0  9995
2 44426  51.6422 229.2521 0003865 209.3413 179.0279 15.56746425 35333
KRAKSAT                 
1 44427U 98067QM  20045.88525705  .00004964  00000-0  82122-4 0  9994
2 44427  51.6403 234.1986 0003636 207.5762 152.5037 15.54147299 35257
ENTRYSAT                
1 44429U 98067QP  20045.72191868  .00008008  00000-0  12212-3 0  9993
2 44429  51.6392 233.8519 0002687 215.0092 145.0723 15.55451278 35243
NARSSCUBE-1             
1 44792U 98067QV  20046.50640610  .00005225  00000-0  93977-4 0  9993
2 44792  51.6401 234.5758 0005244 272.2068  87.8321 15.51637311 13535
FOSSASAT-1              
1 44829U 19084F   20046.36217133  .00022294  00000-0  19655-3 0  9995
2 44829  96.9952 275.1566 0037183 350.0702   9.9821 15.67791890 11105
ATL-1                   
1 44830U 19084G   20045.71928561  .00024242  00000-0  21162-3 0  9990
2 44830  96.9947 274.5259 0037116 352.5898   7.4811 15.68020538 11008
SMOG-P                  
1 44832U 19084J   20045.90144711  .00024074  00000-0  20759-3 0  9994
2 44832  96.9951 274.7337 0036413 351.1135   8.9478 15.68353724 11036
DUCHIFAT-3              
1 44854U 19089C   20046.46555557  .00000274  00000-0  28655-4 0  9999
2 44854  36.9669 105.1340 0007012 148.1707 211.9476 14.98970488  9836
OPS-SAT                 
1 44878U 19092F   20046.48325422 -.00000066  00000-0  00000+0 0  9996
2 44878  97.4644 231.8736 0015639  65.8945 294.3946 15.15258410  8915
FLORIPASAT-1            
1 44885U 19093G   20046.44243920  .00000214  00000-0  33769-4 0  9990
2 44885  97.9696 123.3052 0016187  87.7865 272.5198 14.81968094  8481
HUSKYSAT-1              
1 45119U 19071J   20045.89227361  .00000906  00000-0  39489-4 0  9999
2 45119  51.6430 240.1947 0012034 331.5528  28.4796 15.33117140  2166
